OBJECT_NAME,OBJECT_ID,EPOCH,MEAN_MOTION,ECCENTRICITY,INCLINATION,RA_OF_ASC_NODE,ARG_OF_PERICENTER,MEAN_ANOMALY,EPHEMERIS_TYPE,CLASSIFICATION_TYPE,NORAD_CAT_ID,ELEMENT_SET_NO,REV_AT_EPOCH,BSTAR,MEAN_MOTION_DOT,MEAN_MOTION_DDOT
POLYITAN-1,2014-033AJ,2026-07-13T14:32:25.866816,15.34182579,.00080317,98.0935,223.3833,69.0033,291.2066,0,U,40042,999,65764,.34337086E-3,.11285E-3,0
TIGRISAT,2014-033AK,2026-07-13T09:22:47.068320,14.85246548,.00487737,97.7860,343.8076,350.2970,9.7298,0,U,40043,999,64951,.10106017E-3,.829E-5,0
AEROCUBE 6A,2014-033AM,2026-07-13T09:42:26.746272,14.98332074,.00364503,97.7236,1.0799,287.1710,72.5524,0,U,40045,999,65054,.26419301E-3,.3127E-4,0
AEROCUBE 6B,2014-033AN,2026-07-13T10:45:07.615584,14.99788967,.00380077,97.7196,0.9676,276.2664,83.4230,0,U,40046,999,65069,.21843297E-3,.2679E-4,0
CANX-4,2014-034C,2026-07-13T15:09:03.106944,14.81309629,.00114673,98.3086,70.9111,288.5031,71.4934,0,U,40055,999,64844,.64858916E-4,.449E-5,0
CANX-5,2014-034D,2026-07-13T15:06:21.049920,14.81326996,.00114596,98.3088,70.9543,288.7067,71.2900,0,U,40056,999,63925,.65048757E-4,.451E-5,0
UKUBE-1,2014-037F,2026-07-13T11:26:38.781600,15.13935151,.00033271,98.4240,200.5192,92.0376,268.1233,0,U,40074,999,65253,.2513254E-3,.4476E-4,0
BRITE-PL2 (HEWELIUSZ),2014-049B,2026-07-13T13:11:12.282144,14.94684657,.00144951,97.9119,306.7568,27.6491,332.5497,0,U,40119,999,64538,.68555297E-4,.685E-5,0
AEROCUBE 5C,2015-058B,2026-07-13T07:41:28.853376,14.91569281,.01322096,64.7652,181.2824,53.1402,308.1745,0,U,40965,999,36955,.17186552E-3,.1862E-4,0
AEROCUBE 7,2015-058C,2026-07-13T15:25:40.326240,14.95904974,.01219406,64.7609,161.9389,51.3401,309.8549,0,U,40966,999,36991,.24037644E-3,.2949E-4,0
FOX-1A (AO-85),2015-058D,2026-07-13T09:02:14.152416,14.91081725,.01322082,64.7723,197.5870,46.4986,314.7024,0,U,40967,999,11747,.15941732E-3,.169E-4,0
SINOD-D 1,2015-058E,2026-07-13T08:24:22.489920,14.96077409,.01208962,64.7731,176.9685,42.8594,318.1865,0,U,40968,999,12057,.23838974E-3,.293E-4,0
SNAP-3 ALICE,2015-058G,2026-07-13T15:42:20.134080,15.66921770,.00244289,64.7492,11.9714,349.3601,10.7028,0,U,40970,999,12102,.81774794E-3,.89347E-3,0
LMRST-SAT,2015-058H,2026-07-13T09:44:10.062528,14.90697105,.01337681,64.7731,193.8846,48.4907,312.7591,0,U,40971,999,11746,.15505826E-3,.1627E-4,0
SNAP-3 EDDIE,2015-058J,2026-07-13T14:57:34.773696,15.68276229,.00253918,64.7400,2.6034,352.0284,8.0458,0,U,40972,999,12316,.84913499E-3,.98318E-3,0
PROPCUBE 3,2015-058K,2026-07-13T09:02:17.619648,14.94407083,.01256018,64.7667,170.6999,49.6933,311.5075,0,U,40973,999,11871,.20685019E-3,.2428E-4,0
BISONSAT,2015-058L,2026-07-13T03:31:35.827680,15.16897055,.00818574,64.7589,89.6667,36.7421,323.9275,0,U,40974,999,11955,.41900735E-3,.8837E-4,0
SNAP-3 JIMI,2015-058M,2026-07-13T06:45:48.237984,15.02592193,.0107717,64.7643,137.1920,45.0565,315.9226,0,U,40975,999,11814,.30462E-3,.4425E-4,0
PROPCUBE 1 (FLORA),2015-058N,2026-07-13T10:50:38.782464,14.89322709,.01323512,64.7718,213.8276,50.7565,310.5203,0,U,40976,999,12017,.12865649E-3,.1262E-4,0
SINOD-D 3,2015-058P,2026-07-13T09:53:56.696064,14.94165190,.01209149,64.7700,193.9150,47.8300,313.3005,0,U,40977,999,11867,.2033941E-3,.2341E-4,0
RAVAN,2016-067B,2026-07-13T14:28:38.366112,15.57346223,.00019523,97.9846,87.2774,224.8680,135.2416,0,U,41849,999,53180,.48489268E-3,.35435E-3,0
CELTEE 1,2016-067C,2026-07-13T14:36:20.266560,15.19931554,.00022868,98.0640,62.9779,111.9724,248.1752,0,U,41850,999,52989,.13526698E-3,.2829E-4,0
OPTICUBE 04,2016-067D,2026-07-13T12:35:13.281792,15.09768061,.00162846,98.0675,48.1806,33.2902,326.9347,0,U,41851,999,52914,.80166832E-4,.1226E-4,0
AEROCUBE 8D,2016-067E,2026-07-13T14:32:17.892960,15.24755969,.00046827,98.0647,66.7886,60.9007,299.2697,0,U,41852,999,53009,.18105027E-3,.4403E-4,0
AEROCUBE 8C,2016-067F,2026-07-13T15:01:59.046240,15.25010493,.00044713,98.0521,64.0049,347.6980,12.4146,0,U,41853,999,53009,.17184966E-3,.4207E-4,0
CORVUS BC2,2017-042X,2026-07-13T15:10:49.939680,15.06452122,.0013588,97.4090,354.9602,28.2514,331.9448,0,U,42846,999,49104,.9772256E-4,.1384E-4,0
CORVUS BC1,2017-042Y,2026-07-13T10:11:57.361344,15.06614889,.00117836,97.4115,355.5916,6.7633,353.3752,0,U,42847,999,49104,.76175233E-4,.107E-4,0
MAKERSAT 0,2017-073D,2026-07-13T14:58:38.311392,15.32968226,.0105364,97.4590,77.3600,177.8429,182.3290,0,U,43016,999,47051,.32412388E-3,.12247E-3,0
SIRION PATHFINDER-2,2018-099B,2026-07-12T22:42:56.582208,15.14767949,.00082388,97.4243,242.3930,199.6407,160.4509,0,U,43759,999,41652,.16275605E-3,.2956E-4,0
CORVUS BC4,2018-099K,2026-07-12T23:42:57.731616,15.12692886,.00064982,97.4056,236.2140,270.3916,89.6570,0,U,43767,999,41630,.15895104E-3,.2719E-4,0
