POLYITAN-1              
1 40042U 14033AJ  26194.60585494  .00011285  00000+0  34337-3 0  9993
2 40042  98.0935 223.3833 0008031  69.0033 291.2066 15.34182579657642
TIGRISAT                
1 40043U 14033AK  26194.39082255  .00000829  00000+0  10106-3 0  9997
2 40043  97.7860 343.8076 0048773 350.2970   9.7298 14.85246548649513
AEROCUBE 6A             
1 40045U 14033AM  26194.40447623  .00003127  00000+0  26419-3 0  9993
2 40045  97.7236   1.0799 0036450 287.1710  72.5524 14.98332074650545
AEROCUBE 6B             
1 40046U 14033AN  26194.44800481  .00002679  00000+0  21843-3 0  9990
2 40046  97.7196   0.9676 0038007 276.2664  83.4230 14.99788967650698
CANX-4                  
1 40055U 14034C   26194.63128596  .00000449  00000+0  64859-4 0  9990
2 40055  98.3086  70.9111 0011467 288.5031  71.4934 14.81309629648442
CANX-5                  
1 40056U 14034D   26194.62941030  .00000451  00000+0  65049-4 0  9991
2 40056  98.3088  70.9543 0011459 288.7067  71.2900 14.81326996639252
UKUBE-1                 
1 40074U 14037F   26194.47683775  .00004476  00000+0  25133-3 0  9996
2 40074  98.4240 200.5192 0003327  92.0376 268.1233 15.13935151652535
BRITE-PL2 (HEWELIUSZ)   
1 40119U 14049B   26194.54944771  .00000685  00000+0  68555-4 0  9997
2 40119  97.9119 306.7568 0014495  27.6491 332.5497 14.94684657645383
AEROCUBE 5C             
1 40965U 15058B   26194.32047284  .00001862  00000+0  17187-3 0  9998
2 40965  64.7652 181.2824 0132209  53.1402 308.1745 14.91569281369556
AEROCUBE 7              
1 40966U 15058C   26194.64282785  .00002949  00000+0  24038-3 0  9991
2 40966  64.7609 161.9389 0121940  51.3401 309.8549 14.95904974369915
FOX-1A (AO-85)          
1 40967U 15058D   26194.37655269  .00001690  00000+0  15942-3 0  9999
2 40967  64.7723 197.5870 0132208  46.4986 314.7024 14.91081725117476
SINOD-D 1               
1 40968U 15058E   26194.35026030  .00002930  00000+0  23839-3 0  9998
2 40968  64.7731 176.9685 0120896  42.8594 318.1865 14.96077409120571
SNAP-3 ALICE            
1 40970U 15058G   26194.65439970  .00089347  00000+0  81775-3 0  9995
2 40970  64.7492  11.9714 0024428 349.3601  10.7028 15.66921770121021
LMRST-SAT               
1 40971U 15058H   26194.40567202  .00001627  00000+0  15506-3 0  9993
2 40971  64.7731 193.8846 0133768  48.4907 312.7591 14.90697105117469
SNAP-3 EDDIE            
1 40972U 15058J   26194.62331914  .00098318  00000+0  84913-3 0  9998
2 40972  64.7400   2.6034 0025391 352.0284   8.0458 15.68276229123160
PROPCUBE 3              
1 40973U 15058K   26194.37659282  .00002428  00000+0  20685-3 0  9995
2 40973  64.7667 170.6999 0125601  49.6933 311.5075 14.94407083118711
BISONSAT                
1 40974U 15058L   26194.14694245  .00008837  00000+0  41901-3 0  9993
2 40974  64.7589  89.6667 0081857  36.7421 323.9275 15.16897055119558
SNAP-3 JIMI             
1 40975U 15058M   26194.28180831  .00004425  00000+0  30462-3 0  9999
2 40975  64.7643 137.1920 0107717  45.0565 315.9226 15.02592193118148
PROPCUBE 1 (FLORA)      
1 40976U 15058N   26194.45183776  .00001262  00000+0  12866-3 0  9994
2 40976  64.7718 213.8276 0132351  50.7565 310.5203 14.89322709120173
SINOD-D 3               
1 40977U 15058P   26194.41246176  .00002341  00000+0  20339-3 0  9998
2 40977  64.7700 193.9150 0120914  47.8300 313.3005 14.94165190118678
RAVAN                   
1 41849U 16067B   26194.60322183  .00035435  00000+0  48489-3 0  9998
2 41849  97.9846  87.2774 0001952 224.8680 135.2416 15.57346223531800
CELTEE 1                
1 41850U 16067C   26194.60856790  .00002829  00000+0  13527-3 0  9992
2 41850  98.0640  62.9779 0002286 111.9724 248.1752 15.19931554529895
OPTICUBE 04             
1 41851U 16067D   26194.52445928  .00001226  00000+0  80167-4 0  9996
2 41851  98.0675  48.1806 0016284  33.2902 326.9347 15.09768061529141
AEROCUBE 8D             
1 41852U 16067E   26194.60576265  .00004403  00000+0  18105-3 0  9997
2 41852  98.0647  66.7886 0004682  60.9007 299.2697 15.24755969530093
AEROCUBE 8C             
1 41853U 16067F   26194.62637785  .00004207  00000+0  17185-3 0  9994
2 41853  98.0521  64.0049 0004471 347.6980  12.4146 15.25010493530099
CORVUS BC2              
1 42846U 17042X   26194.63252245  .00001384  00000+0  97723-4 0  9996
2 42846  97.4090 354.9602 0013588  28.2514 331.9448 15.06452122491049
CORVUS BC1              
1 42847U 17042Y   26194.42496946  .00001070  00000+0  76175-4 0  9992
2 42847  97.4115 355.5916 0011783   6.7633 353.3752 15.06614889491047
MAKERSAT 0              
1 43016U 17073D   26194.62405453  .00012247  00000+0  32412-3 0  9993
2 43016  97.4590  77.3600 0105364 177.8429 182.3290 15.32968226470516
SIRION PATHFINDER-2     
1 43759U 18099B   26193.94648822  .00002956  00000+0  16276-3 0  9995
2 43759  97.4243 242.3930 0008238 199.6407 160.4509 15.14767949416525
CORVUS BC4              
1 43767U 18099K   26193.98816819  .00002719  00000+0  15895-3 0  9994
2 43767  97.4056 236.2140 0006498 270.3916  89.6570 15.12692886416300
